[{"OBJECT_NAME":"STARLINK-3863","OBJECT_ID":"2022-049Q","EPOCH":"2026-03-09T22:20:28.721472","MEAN_MOTION":15.08837328,"ECCENTRICITY":0.00013682,"INCLINATION":53.2178,"RA_OF_ASC_NODE":48.0387,"ARG_OF_PERICENTER":86.6812,"MEAN_ANOMALY":273.4337,"EPHEMERIS_TYPE":0,"CLASSIFICATION_TYPE":"U","NORAD_CAT_ID":52465,"ELEMENT_SET_NO":999,"REV_AT_EPOCH":21242,"BSTAR":5.707138e-5,"MEAN_MOTION_DOT":6.2e-6,"MEAN_MOTION_DDOT":0},{"OBJECT_NAME":"YAM-8","OBJECT_ID":"2025-052AW","EPOCH":"2026-03-09T17:32:32.161056","MEAN_MOTION":15.10898939,"ECCENTRICITY":0.00023693,"INCLINATION":97.7023,"RA_OF_ASC_NODE":329.5345,"ARG_OF_PERICENTER":152.6796,"MEAN_ANOMALY":207.4558,"EPHEMERIS_TYPE":0,"CLASSIFICATION_TYPE":"U","NORAD_CAT_ID":63254,"ELEMENT_SET_NO":999,"REV_AT_EPOCH":5424,"BSTAR":0.00047267461,"MEAN_MOTION_DOT":7.81e-5,"MEAN_MOTION_DDOT":0}]
